NORAD_CAT_ID,TLE_LINE0,TLE_LINE1,TLE_LINE2,CREATION_DATE,OBJECT_NAME,OBJECT_ID,EPOCH,MEAN_MOTION,ECCENTRICITY,INCLINATION,RA_OF_ASC_NODE,ARG_OF_PERICENTER,MEAN_ANOMALY,REV_AT_EPOCH,BSTAR,MEAN_MOTION_DOT,MEAN_MOTION_DDOT,SEMIMAJOR_AXIS,PERIOD,APOAPSIS,PERIAPSIS,OBJECT_TYPE,COUNTRY_CODE,LAUNCH_DATE,SITE,DECAY_DATE,LAUNCH_YEAR,LAUNCH_SEQ,EPOCH_FINAL,ORBIT_CLASS,EVENT,DURATION,RCS_SIZE
81,0 EXPLORER 9,1 00081U 61004  A 64099.25942492  .10394656 +00000-0 +00000-0 0  9999,2 00081 038.8448 136.7337 0200872 038.1868 323.2614 15.48210031142271,15/08/2004 23:35,EXPLORER 9,1961-004A,08/04/1964 06:13,15.48210031,0.0200872,38.8448,136.7337,38.1868,323.2614,14227,0.0,0.10394656,0.0,6800.103,93.01,558.563,285.373,PAYLOAD,US,19/01/1961,AFETR,09/04/1964,1961,4,08/04/1964 12:27,LEO,1,1176,MEDIUM
82,0 SCOUT X-1 R/B,1 00082U 61004B   25193.37115735  .00000200  00000-0  20984-3 0  9991,2 00082  38.8525 181.8327 1167013  21.1952 343.3262 12.27668218 35039,12/07/2025 17:51,SCOUT X-1 R/B,1961-004B,12/07/2025 08:54,12.27668218,0.1167013,38.8525,181.8327,21.1952,343.3262,3503,0.00020984,2e-06,0.0,7937.453,117.296,2485.629,633.007,ROCKET BODY,US,16/02/1961,WLPIS,,1961,4,12/07/2025 17:48,LEO,0,23523,LARGE
83,0 DISCOVERER 20,1 00083U 61005  A 62206.70306200  .02507153 +25804-1 +00000-0 0  9990,2 00083 080.8319 224.1510 0000000 103.6165 238.9354 16.25710547080751,15/08/2004 23:35,DISCOVERER 20,1961-005A,25/07/1962 16:52,16.25710547,0.0,80.8319,224.151,103.6165,238.9354,8075,0.0,0.02507153,0.025804,6582.233,88.576,204.098,204.098,PAYLOAD,DEN,21/01/1961,AFWTR,28/07/1962,1961,5,26/07/1962 09:44,LEO,1,553,MEDIUM
84,0 DISCOVERER 21,1 00084U 61006  A 62108.49162620  .00734000 +00000-0 +00000-0 0  9996,2 00084 080.6348 036.1968 0053808 166.7139 193.2084 16.12462598064396,15/08/2004 23:35,DISCOVERER 21,1961-006A,18/04/1962 11:47,16.12462598,0.0053808,80.6348,36.1968,166.7139,193.2084,6439,0.0,0.00734,0.0,6618.237,89.304,275.713,204.491,PAYLOAD,DEN,29/01/1961,AFWTR,20/04/1962,1961,6,18/04/1962 23:35,LEO,1,446,MEDIUM
85,0 SCOUT X-1 DEB,1    85U 61004C   25126.91579424  .00547528  00000-0  83528-2 0  9990,2    85  38.6281 333.3586 0047038 226.2995 133.3890 15.50513241188530,29/05/2025 10:36,SCOUT X-1 DEB,1961-004C,06/05/2025 21:58,15.50513241,0.0047038,38.6281,333.3586,226.2995,133.389,18853,0.0083528,0.00547528,0.0,6793.364,92.872,447.183,383.274,DEBRIS,US,16/02/1961,WLPIS,03/06/2025,1961,4,07/05/2025 19:57,LEO,1,23483,SMALL
87,0 TRANSIT 3B/LOFTI 1,1 00087U 61007  A 61089.39107037  .11557550 +00000-0 +00000-0 0  9992,2 00087 028.3799 144.5259 0068373 083.3360 277.0597 16.34729247005608,15/08/2004 23:35,TRANSIT 3B/LOFTI 1,1961-007A,30/03/1961 09:23,16.34729247,0.0068373,28.3799,144.5259,83.336,277.0597,560,0.0,0.1155755,0.0,6558.002,88.087,224.706,135.028,PAYLOAD,US,31/01/1961,AFWTR,30/03/1961,1961,7,30/03/1961 18:46,LEO,1,58,MEDIUM
88,0 DISCOVERER 20 DEB,1 00088U 61005  B 61090.88572693  .01415362 +00000-0 +00000-0 0  9994,2 00088 080.9099 107.9583 0000000 339.6631 020.3368 15.97538142006505,15/08/2004 23:35,DISCOVERER 20 DEB,1961-005B,31/03/1961 21:15,15.97538142,0.0,80.9099,107.9583,339.6631,20.3368,650,0.0,0.01415362,0.0,6659.392,90.138,281.257,281.257,DEBRIS,DEN,23/01/1961,AFWTR,02/04/1961,1961,5,01/04/1961 18:30,LEO,1,69,SMALL
89,0 DISCOVERER 20 DEB,1 00089U 61005  C 61091.31996822  .00509837 +00000-0 +00000-0 0  9998,2 00089 080.9099 108.5267 0187904 341.2386 019.1045 15.51776004006506,15/08/2004 23:35,DISCOVERER 20 DEB,1961-005C,01/04/1961 07:40,15.51776004,0.0187904,80.9099,108.5267,341.2386,19.1045,650,0.0,0.00509837,0.0,6789.681,92.796,539.127,283.966,DEBRIS,DEN,25/01/1961,AFWTR,20/04/1961,1961,5,01/04/1961 15:21,LEO,1,85,SMALL
90,0 DISCOVERER 20 DEB,1 00090U 61005  D 61295.45793529  .01555739 +00000-0 +00000-0 0  9993,2 00090 080.7118 219.4209 0004101 016.4298 343.5769 15.82295788037405,15/08/2004 23:35,DISCOVERER 20 DEB,1961-005D,22/10/1961 10:59,15.82295788,0.0004101,80.7118,219.4209,16.4298,343.5769,3740,0.0,0.01555739,0.0,6702.091,91.007,326.704,321.207,DEBRIS,DEN,27/01/1961,AFWTR,31/10/1961,1961,5,22/10/1961 21:58,LEO,1,277,SMALL
91,0 SPUTNIK 9,1 00091U 61008  A 61068.32560921  .00000000 +00000-0 +00000-0 0  9994,2 00091 064.9300 300.5999 0070000 095.0000 265.4066 16.39468422000015,15/08/2004 23:35,SPUTNIK 9,1961-008A,09/03/1961 07:48,16.39468422,0.007,64.93,300.5999,95.0,265.4066,1,0.0,0.0,0.0,6545.358,87.833,213.04,121.405,PAYLOAD,CIS,02/02/1961,TTMTR,09/03/1961,1961,8,09/03/1961 15:37,LEO,1,35,MEDIUM
92,0 SPUTNIK 9 DEB,1 00092U 61008  B 61068.57164955  .00000000 +00000-0 +00000-0 0  9999,2 00092 064.9299 298.7499 0023484 024.4999 335.5567 16.32781345000057,15/08/2004 23:35,SPUTNIK 9 DEB,1961-008B,09/03/1961 13:43,16.32781345,0.0023484,64.9299,298.7499,24.4999,335.5567,5,0.0,0.0,0.0,6563.217,88.193,200.495,169.668,DEBRIS,CIS,04/02/1961,TTMTR,10/03/1961,1961,8,10/03/1961 03:26,LEO,1,34,SMALL
93,0 SPUTNIK 9 DEB,1 00093U 61008  C 61068.57068920  .00000000 +00000-0 +00000-0 0  9995,2 00093 064.9299 298.7499 0000000 117.5648 242.4351 16.37479598000058,15/08/2004 23:35,SPUTNIK 9 DEB,1961-008C,09/03/1961 13:41,16.37479598,0.0,64.9299,298.7499,117.5648,242.4351,5,0.0,0.0,0.0,6550.656,87.94,172.521,172.521,DEBRIS,CIS,06/02/1961,TTMTR,10/03/1961,1961,8,10/03/1961 03:23,LEO,1,32,SMALL
95,0 SPUTNIK 10,1 00095U 61009  A 61084.30125903  .00304554 +00000-0 +00000-0 0  9993,2 00095 064.9999 305.7360 0000000 042.2018 317.7981 16.36297684000012,15/08/2004 23:35,SPUTNIK 10,1961-009A,25/03/1961 07:13,16.36297684,0.0,64.9999,305.736,42.2018,317.7981,1,0.0,0.00304554,0.0,6553.81,88.003,175.675,175.675,PAYLOAD,CIS,08/02/1961,TTMTR,25/03/1961,1961,9,25/03/1961 14:27,LEO,1,45,MEDIUM
96,0 SL-3 R/B,1 00096U 61009  B 61084.91338443  .10339310 +00000-0 +00000-0 0  9995,2 00096 065.0000 304.1020 0048232 041.7292 318.4575 16.39704983000117,15/08/2004 23:35,SL-3 R/B,1961-009B,25/03/1961 21:55,16.39704983,0.0048232,65.0,304.102,41.7292,318.4575,11,0.0,0.1033931,0.0,6544.728,87.82,198.16,135.027,ROCKET BODY,CIS,10/02/1961,PKMTR,26/03/1961,1961,9,26/03/1961 19:50,LEO,1,44,LARGE
97,0 SL-3 DEB,1 00097U 61009  C 61084.60967635  .00299049 +00000-0 +00000-0 0  9996,2 00097 065.0000 305.2646 0053086 041.8763 318.3297 16.26495110000060,15/08/2004 23:35,SL-3 DEB,1961-009C,25/03/1961 14:37,16.2649511,0.0053086,65.0,305.2646,41.8763,318.3297,6,0.0,0.00299049,0.0,6580.116,88.533,236.913,167.05,DEBRIS,CIS,12/02/1961,PKMTR,26/03/1961,1961,9,26/03/1961 05:15,LEO,1,42,SMALL
99,0 THOR ABLESTAR DEB,1 00099U 60003  D 79186.84178960  .01646730 +24659-2 +98060-3 0  9992,2 00099 051.2611 217.5480 0004728 097.4296 263.3330 16.18346998058087,15/08/2004 23:41,THOR ABLESTAR DEB,1960-003D,05/07/1979 20:12,16.18346998,0.0004728,51.2611,217.548,97.4296,263.333,5808,0.0009806,0.0164673,0.0024659,6602.184,88.979,227.171,220.928,DEBRIS,US,13/04/1960,AFETR,15/07/1979,1960,3,06/07/1979 16:24,LEO,1,7032,SMALL
100,0 DISCOVERER 23,1 00100U 61011  A 62098.29790496  .00498777 +00000-0 +00000-0 0  9993,2 00100 082.2270 159.1991 0030504 264.6516 094.9985 16.09519096056721,15/08/2004 23:35,DISCOVERER 23,1961-011A,08/04/1962 07:08,16.09519096,0.0030504,82.227,159.1991,264.6516,94.9985,5672,0.0,0.00498777,0.0,6626.304,89.467,268.381,227.956,PAYLOAD,DEN,14/02/1961,AFWTR,16/04/1962,1961,11,08/04/1962 14:17,LEO,1,426,MEDIUM
101,0 THOR ABLE DEB (YO),1 00101U 60002  C 83106.81622310  .09665547 +57417-4 +11294-2 0  9990,2 00101 048.4727 027.9990 0000398 270.9061 249.8269 16.35832332249187,16/08/2004 23:16,THOR ABLE DEB (YO),1960-002C,16/04/1983 19:35,16.35832332,3.98e-05,48.4727,27.999,270.9061,249.8269,24918,0.0011294,0.09665547,5.74e-05,6555.053,88.028,177.179,176.657,DEBRIS,US,01/04/1960,AFETR,17/04/1983,1960,2,17/04/1983 15:10,LEO,1,8416,SMALL
102,0 DISCOVERER 23 CAPSULE,1 00102U 61011  B 62141.57070259  .02778262 +00000-0 +00000-0 0  9995,2 00102 081.8800 137.0465 0000000 256.3089 108.2152 16.31367068060601,15/08/2004 23:35,DISCOVERER 23 CAPSULE,1961-011B,21/05/1962 13:41,16.31367068,0.0,81.88,137.0465,256.3089,108.2152,6060,0.0,0.02778262,0.0,6567.009,88.269,188.874,188.874,PAYLOAD,DEN,16/02/1961,AFWTR,23/05/1962,1961,11,22/05/1962 03:23,LEO,1,461,MEDIUM
104,0 SL-3 R/B,1 00104U 61012  B 61104.66220665  .04001968 +00000-0 +00000-0 0  9998,2 00104 065.0699 318.9234 0085709 098.8261 261.6679 16.23126885000396,15/08/2004 23:35,SL-3 R/B,1961-012B,14/04/1961 15:53,16.23126885,0.0085709,65.0699,318.9234,98.8261,261.6679,39,0.0,0.04001968,0.0,6589.216,88.717,267.557,154.606,ROCKET BODY,CIS,20/02/1961,PKMTR,16/04/1961,1961,12,15/04/1961 07:47,LEO,1,55,LARGE
105,0 JUNO II DEB,1 00105U 60014  D 72059.92842267  .01803377 +00000-0 +00000-0 0  9999,2 00105 050.4242 028.4966 0062390 251.9739 107.4401 15.88057487557429,22/04/2005 16:12,JUNO II DEB,1960-014D,28/02/1972 22:16,15.88057487,0.006239,50.4242,28.4966,251.9739,107.4401,55742,0.0,0.01803377,0.0,6685.87,90.676,349.448,266.022,DEBRIS,US,16/02/1960,AFETR,03/03/1972,1960,14,29/02/1972 20:33,LEO,1,4399,SMALL
106,0 DISCOVERER 23 DEB,1 00106U 61011  C 61245.65856299  .01934985 +00000-0 +00000-0 0  9993,2 00106 081.8681 045.6978 0215079 039.0670 321.7165 15.80427697021703,15/08/2004 23:35,DISCOVERER 23 DEB,1961-011C,02/09/1961 15:48,15.80427697,0.0215079,81.8681,45.6978,39.067,321.7165,2170,0.0,0.01934985,0.0,6707.371,91.114,473.498,184.975,DEBRIS,DEN,18/02/1961,AFWTR,10/09/1961,1961,11,03/09/1961 07:36,LEO,1,204,SMALL
107,0 EXPLORER 11,1 00107U 61013A   25193.06801146  .00000932  00000-0  94238-4 0  9999,2 00107  28.7870 114.2964 0503758 196.9332 161.3850 14.19857415228078,12/07/2025 17:51,EXPLORER 11,1961-013A,12/07/2025 01:37,14.19857415,0.0503758,28.787,114.2964,196.9332,161.385,22807,9.42e-05,9.32e-06,0.0,7203.972,101.419,1188.743,462.931,PAYLOAD,US,27/04/1961,AFETR,,1961,13,12/07/2025 03:15,LEO,0,23453,MEDIUM
